{
  "norad_id": 66976,
  "name": "STARLINK-35772",
  "history": [
    {
      "epoch": "2026-03-28T22:00:01.999584Z",
      "apogee_km": 484.0584496912088,
      "perigee_km": 482.2957780953502,
      "latitude_deg": 10.02615238042142,
      "longitude_deg": -72.31635882022391,
      "height_km": 482.73268203831606,
      "semi_major_axis_km": 6861.314113893279,
      "eccentricity": 0.00012845,
      "inclination_deg": 43.0,
      "raan_deg": 274.8901,
      "arg_perigee_deg": 291.9328,
      "mean_anomaly_deg": 233.2939,
      "mean_motion_rev_day": 15.27537248
    },
    {
      "epoch": "2026-03-29T04:00:01.999584Z",
      "apogee_km": 484.08665412965456,
      "perigee_km": 482.1737328361114,
      "latitude_deg": 42.061454265339265,
      "longitude_deg": 132.67115019096653,
      "height_km": 486.996848076527,
      "semi_major_axis_km": 6861.267193482883,
      "eccentricity": 0.0001394,
      "inclination_deg": 42.9998,
      "raan_deg": 273.476,
      "arg_perigee_deg": 279.6773,
      "mean_anomaly_deg": 181.9884,
      "mean_motion_rev_day": 15.27552917
    }
  ]
}